STARLINK-4279           
1 53018U 22076AJ  26068.45481172  .00000260  00000+0  34401-4 0  9991
2 53018  53.2164  85.4343 0001309  88.5552 271.5590 15.08841874202945
DISKSAT A               
1 67222U 25305D   26068.54789610  .00013824  00000+0  90452-3 0  9996
2 67222  45.0023 251.6019 0004082 318.1929  41.8634 15.07741062 12266
